{
  "norad_id": 59492,
  "name": "STARLINK-31684",
  "history": [
    {
      "epoch": "2026-03-28T18:09:34.787232Z",
      "apogee_km": 483.888900476416,
      "perigee_km": 482.2330189608174,
      "latitude_deg": 1.1206989954219438e-05,
      "longitude_deg": 141.11153841645648,
      "height_km": 482.9576722178036,
      "semi_major_axis_km": 6861.197959718616,
      "eccentricity": 0.00012067,
      "inclination_deg": 43.0024,
      "raan_deg": 239.679,
      "arg_perigee_deg": 261.6709,
      "mean_anomaly_deg": 98.4006,
      "mean_motion_rev_day": 15.27576038
    }
  ]
}