{"fetched_at":"2026-03-29T16:36:15Z","count":15609,"tles":[{"name":"STARLINK-31684","line1":"1 59492U 24071J   26087.75665263  .00001392  00000+0  60121-4 0  9994","line2":"2 59492  43.0024 239.6790 0001206 261.6709  98.4006 15.27576038111037","category":"Starlink"}]}